[{"OBJECT_NAME":"ONEWEB-0409","OBJECT_ID":"2021-132V","EPOCH":"2026-03-09T21:57:45.936000","MEAN_MOTION":13.11418479,"ECCENTRICITY":0.00018596,"INCLINATION":87.8869,"RA_OF_ASC_NODE":40.7877,"ARG_OF_PERICENTER":73.4412,"MEAN_ANOMALY":286.692,"EPHEMERIS_TYPE":0,"CLASSIFICATION_TYPE":"U","NORAD_CAT_ID":50488,"ELEMENT_SET_NO":999,"REV_AT_EPOCH":20257,"BSTAR":0.0012019598,"MEAN_MOTION_DOT":4.39e-6,"MEAN_MOTION_DDOT":0},{"OBJECT_NAME":"SL-14 DEB","OBJECT_ID":"1991-056H","EPOCH":"2026-03-09T11:35:06.232992","MEAN_MOTION":13.06822582,"ECCENTRICITY":0.00514135,"INCLINATION":82.4151,"RA_OF_ASC_NODE":228.9631,"ARG_OF_PERICENTER":227.9174,"MEAN_ANOMALY":131.7565,"EPHEMERIS_TYPE":0,"CLASSIFICATION_TYPE":"U","NORAD_CAT_ID":45271,"ELEMENT_SET_NO":999,"REV_AT_EPOCH":28881,"BSTAR":-0.00058687374,"MEAN_MOTION_DOT":-1.84e-6,"MEAN_MOTION_DDOT":0}]
